H1 CPF  1  MCC 2022 11 11 14  8151 larets
H2  0304206 5557    27944 2022 11 10 23 45 00 2022 11 15 23 57 00   180 1 1  0 0 0
H9
10 0 59898 45180.000000 0      5282359.896      3048043.114      3538064.987
10 0 59898 45360.000000 0      5915373.716      3055234.814      2325218.741
10 0 59898 45540.000000 0      6330652.140      2936958.923      1026740.414
10 0 59898 45720.000000 0      6509891.896      2703513.709      -309546.695
10 0 59898 45900.000000 0      6443872.784      2369816.185     -1634451.253
10 0 59898 46080.000000 0      6132889.854      1954590.073     -2899293.955
10 0 59898 46260.000000 0      5586783.507      1479401.242     -4057754.078
10 0 59898 46440.000000 0      4824562.182       967586.719     -5067598.212
10 0 59898 46620.000000 0      3873647.929       443142.162     -5892209.250
10 0 59898 46800.000000 0      2768804.028       -70371.256     -6501864.547
10 0 59898 46980.000000 0      1550800.182      -550852.768     -6874735.034
10 0 59898 47160.000000 0       264879.965      -978581.106     -6997587.436
10 0 59898 47340.000000 0     -1040915.528     -1336994.333     -6866189.321
10 0 59898 47520.000000 0     -2317511.823     -1613306.962     -6485417.739
10 0 59898 47700.000000 0     -3516604.368     -1798950.944     -5869077.654
10 0 59898 47880.000000 0     -4592448.529     -1889829.530     -5039436.921
10 0 59898 48060.000000 0     -5503594.404     -1886379.830     -4026482.564
10 0 59898 48240.000000 0     -6214501.434     -1793438.637     -2866900.006
10 0 59898 48420.000000 0     -6696967.764     -1619915.059     -1602795.405
10 0 59898 48600.000000 0     -6931304.473     -1378279.779      -280193.672
10 0 59898 48780.000000 0     -6907192.321     -1083891.670      1052637.893
10 0 59898 48960.000000 0     -6624167.716      -754191.718      2346974.762
10 0 59898 49140.000000 0     -6091706.137      -407807.405      3555451.115
10 0 59898 49320.000000 0     -5328896.226       -63611.772      4633826.670
10 0 59898 49500.000000 0     -4363718.960       260212.592      5542624.036
10 0 59898 49680.000000 0     -3231979.165       547057.785      6248569.440
10 0 59898 49860.000000 0     -1975940.123       782681.317      6725795.298
10 0 59898 50040.000000 0      -642717.736       955867.601      6956766.907
10 0 59898 50220.000000 0       717499.213      1058936.186      6932907.249
10 0 59898 50400.000000 0      2053336.762      1088076.139      6654912.813
10 0 59898 50580.000000 0      3314176.448      1043495.471      6132755.661
10 0 59898 50760.000000 0      4452090.006       929377.908      5385365.464
10 0 59898 50940.000000 0      5423699.448       753647.304      4439988.313
10 0 59898 51120.000000 0      6191895.173       527546.476      3331235.383
10 0 59898 51300.000000 0      6727335.919       265048.778      2099828.526
10 0 59898 51480.000000 0      7009647.161       -17874.954       791087.381
10 0 59898 51660.000000 0      7028258.405      -304096.778      -546784.997
10 0 59898 51840.000000 0      6782824.990      -576235.222     -1864547.293
10 0 59898 52020.000000 0      6283207.238      -817573.353     -3113805.076
10 0 59898 52200.000000 0      5549013.762     -1012940.056     -4248842.431
10 0 59898 52380.000000 0      4608743.544     -1149506.405     -5228316.750
10 0 59898 52560.000000 0      3498585.260     -1217456.635     -6016746.572
10 0 59898 52740.000000 0      2260943.770     -1210508.268     -6585744.559
10 0 59898 52920.000000 0       942769.455     -1126257.406     -6914963.868
10 0 59898 53100.000000 0      -406236.020      -966341.415     -6992747.827
10 0 59898 53280.000000 0     -1735474.443      -736417.462     -6816481.625
10 0 59898 53460.000000 0     -2995310.294      -445957.849     -6392649.681
10 0 59898 53640.000000 0     -4138880.188      -107869.423     -5736601.003
10 0 59898 53820.000000 0     -5123806.976       262049.996     -4872035.613
10 0 59898 54000.000000 0     -5913771.079       645801.346     -3830209.597
10 0 59898 54180.000000 0     -6479883.535      1023998.968     -2648870.060
10 0 59898 54360.000000 0     -6801799.200      1376779.064     -1370935.267
10 0 59898 54540.000000 0     -6868513.484      1684760.383       -42957.663
10 0 59898 54720.000000 0     -6678792.703      1930009.657      1286581.048
10 0 59898 54900.000000 0     -6241206.096      2096962.670      2569065.371
10 0 59898 55080.000000 0     -5573758.333      2173254.995      3757558.540
10 0 59898 55260.000000 0     -4703133.657      2150413.486      4808551.657
10 0 59898 55440.000000 0     -3663594.636      2024374.179      5683568.526
10 0 59898 55620.000000 0     -2495599.054      1795805.201      6350568.721
10 0 59898 55800.000000 0     -1244193.067      1470219.803      6785106.232
10 0 59898 55980.000000 0        42749.294      1057871.390      6971200.473
10 0 59898 56160.000000 0      1316361.656       573437.042      6901904.609
10 0 59898 56340.000000 0      2528638.525        35499.859      6579567.811
10 0 59898 56520.000000 0      3634250.371      -534156.089      6015783.056
10 0 59898 56700.000000 0      4592264.509     -1111418.723      5231013.015
10 0 59898 56880.000000 0      5367707.379     -1670859.985      4253892.316
10 0 59898 57060.000000 0      5932907.883     -2186847.644      3120218.127
10 0 59898 57240.000000 0      6268559.794     -2634710.745      1871647.420
10 0 59898 57420.000000 0      6364442.876     -2991901.440       554143.896
10 0 59898 57600.000000 0      6219763.710     -3239091.906      -783765.813
10 0 59898 57780.000000 0      5843089.704     -3361145.518     -2092851.499
10 0 59898 57960.000000 0      5251876.235     -3347906.201     -3325062.493
10 0 59898 58140.000000 0      4471622.671     -3194766.341     -4435340.046
10 0 59898 58320.000000 0      3534709.793     -2902989.589     -5383281.046
10 0 59898 58500.000000 0      2478986.352     -2479774.997     -6134583.220
10 0 59898 58680.000000 0      1346191.311     -1938071.769     -6662225.311
10 0 59898 58860.000000 0       180281.097     -1296158.287     -6947366.758
10 0 59898 59040.000000 0      -974272.979      -577004.332     -6979943.384
10 0 59898 59220.000000 0     -2074151.827       192552.305     -6758963.843
10 0 59898 59400.000000 0     -3078775.295       982792.386     -6292513.265
10 0 59898 59580.000000 0     -3951762.577      1762235.755     -5597470.063
10 0 59898 59760.000000 0     -4662234.508      2498865.417     -4698943.929
10 0 59898 59940.000000 0     -5185917.965      3161420.900     -3629430.394
10 0 59898 60120.000000 0     -5506004.925      3720709.436     -2427694.918
10 0 59898 60300.000000 0     -5613731.933      4150883.262     -1137414.132
10 0 59898 60480.000000 0     -5508646.068      4430622.287       194392.810
10 0 59898 60660.000000 0     -5198535.960      4544160.513      1519087.884
10 0 59898 60840.000000 0     -4699019.452      4482096.449      2788222.869
10 0 59898 61020.000000 0     -4032806.055      4241942.945      3955346.074
10 0 59898 61200.000000 0     -3228675.134      3828390.243      4977728.999
10 0 59898 61380.000000 0     -2320224.678      3253267.271      5817941.857
10 0 59898 61560.000000 0     -1344450.461      2535205.551      6445218.016
10 0 59898 61740.000000 0      -340223.492      1699021.942      6836558.531
10 0 59898 61920.000000 0       653262.038       774849.944      6977549.001
10 0 59898 62100.000000 0      1598017.146      -202947.987      6862878.655
10 0 59898 62280.000000 0      2458712.006     -1197053.203      6496548.404
10 0 59898 62460.000000 0      3204008.330     -2168613.093      5891762.345
10 0 59898 62640.000000 0      3807728.191     -3078766.952      5070495.913
10 0 59898 62820.000000 0      4249813.620     -3890221.752      4062741.426
10 0 59898 63000.000000 0      4517037.349     -4568816.703      2905443.524
10 0 59898 63180.000000 0      4603429.918     -5085005.435      1641147.893
10 0 59898 63360.000000 0      4510395.875     -5415178.239       316407.133
10 0 59898 63540.000000 0      4246506.550     -5542751.917     -1019989.317
10 0 59898 63720.000000 0      3826982.825     -5458968.560     -2318882.063
10 0 59898 63900.000000 0      3272891.423     -5163356.850     -3532619.235
10 0 59898 64080.000000 0      2610103.508     -4663833.653     -4616851.241
10 0 59898 64260.000000 0      1868074.770     -3976449.603     -5532161.834
10 0 59898 64440.000000 0      1078520.543     -3124801.406     -6245467.863
10 0 59898 64620.000000 0       274055.127     -2139157.480     -6731150.267
10 0 59898 64800.000000 0      -513148.410     -1055337.823     -6971897.085
10 0 59898 64980.000000 0     -1252621.246        86605.125     -6959245.181
10 0 59898 65160.000000 0     -1916747.208      1243853.264     -6693824.480
10 0 59898 65340.000000 0     -2481765.480      2372394.220     -6185310.362
10 0 59898 65520.000000 0     -2928600.180      3428656.682     -5452092.464
10 0 59898 65700.000000 0     -3243498.917      4371167.794     -4520661.847
10 0 59898 65880.000000 0     -3418459.429      5162179.101     -3424715.297
10 0 59898 66060.000000 0     -3451421.226      5769192.900     -2203990.852
10 0 59898 66240.000000 0     -3346215.773      6166327.824      -902870.920
10 0 59898 66420.000000 0     -3112271.353      6335459.887       431216.079
10 0 59898 66600.000000 0     -2764084.019      6267071.520      1749535.720
10 0 59898 66780.000000 0     -2320470.026      5960757.852      3003865.885
10 0 59898 66960.000000 0     -1803634.331      5425348.542      4148297.400
10 0 59898 67140.000000 0     -1238115.029      4678651.527      5140935.629
10 0 59898 67320.000000 0      -649652.716      3746833.606      5945441.388
10 0 59898 67500.000000 0       -64040.526      2663468.145      6532350.022
10 0 59898 67680.000000 0       493989.049      1468296.083      6880128.311
10 0 59898 67860.000000 0      1001797.788       205752.767      6975943.406
10 0 59898 68040.000000 0      1439756.107     -1076686.359      6816126.553
99
